[Satellite]
VERSION=1.1
NAME=INTELSAT 602 (IS-602)
NICKNAME=INTELSAT 602 (IS-602)
TLE1=1 20315U 89087A   11059.38950516  .00000015  00000-0  10000-3 0  2180
TLE2=2 20315   8.3534  58.3546 0000982 270.9456 146.6058  1.00273897 75952
